NORAD_CAT_ID,OBJECT_NAME,OBJECT_TYPE,EPOCH,MEAN_MOTION,ECCENTRICITY,INCLINATION,RA_OF_ASC_NODE,ARG_OF_PERICENTER,MEAN_ANOMALY,BSTAR,MEAN_MOTION_DOT,MEAN_MOTION_DDOT,TLE_LINE0,TLE_LINE1,TLE_LINE2,SEMIMAJOR_AXIS,PERIOD,APOGEE,PERIGEE,DECAYED
52453.0,STARLINK-3872,PAYLOAD,2023-02-22 04:42:28,15.08851253,0.000129,53.217,18.8185,94.5006,265.6134,8.7023e-05,1.098e-05,0.0,0 STARLINK-3872,1 52453U 22049C   23053.19615793  .00001098  00000-0  87023-4 0  9992,2 52453  53.2170  18.8185 0001290  94.5006 265.6134 15.08851253 44470,6917.846,95.437,540.603,538.819,0.0
52453.0,STARLINK-3872,PAYLOAD,2023-02-22 07:53:14,15.08851538,0.0001173,53.2164,18.2231,93.0296,267.083,9.1224e-05,1.165e-05,0.0,0 STARLINK-3872,1 52453U 22049C   23053.32863651  .00001165  00000-0  91224-4 0  9998,2 52453  53.2164  18.2231 0001173  93.0296 267.0830 15.08851538 44334,6917.845,95.437,540.522,538.899,0.0
52453.0,STARLINK-3872,PAYLOAD,2023-02-22 22:11:43,15.0882854,0.0001053,53.2175,15.5448,100.3976,259.7135,-8.5598e-05,-1.649e-05,0.0,0 STARLINK-3872,1 52453U 22049C   23053.92481035 -.00001649  00000-0 -85598-4 0  9992,2 52453  53.2175  15.5448 0001053 100.3976 259.7135 15.08828540 44423,6917.915,95.438,540.509,539.052,0.0
52453.0,STARLINK-3872,PAYLOAD,2023-02-23 07:44:02,15.08839033,9.56e-05,53.2167,13.7598,94.1516,265.9585,8.8863e-05,1.127e-05,0.0,0 STARLINK-3872,1 52453U 22049C   23054.32224763  .00001127  00000-0  88863-4 0  9997,2 52453  53.2167  13.7598 0000956  94.1516 265.9585 15.08839033 44642,6917.883,95.438,540.41,539.087,0.0
52453.0,STARLINK-3872,PAYLOAD,2023-02-23 22:02:30,15.08840362,8.72e-05,53.2163,11.0841,96.4657,263.6435,0.00017005,2.42e-05,0.0,0 STARLINK-3872,1 52453U 22049C   23054.91840807  .00002420  00000-0  17005-3 0  9991,2 52453  53.2163  11.0841 0000872  96.4657 263.6435 15.08840362 44576,6917.879,95.438,540.348,539.141,0.0
52453.0,STARLINK-3872,PAYLOAD,2023-02-24 05:59:25,15.08856537,9.44e-05,53.2155,9.597,101.59,258.5198,0.00043057,6.574e-05,0.0,0 STARLINK-3872,1 52453U 22049C   23055.24960094  .00006574  00000-0  43057-3 0  9999,2 52453  53.2155   9.5970 0000944 101.5900 258.5198 15.08856537 44784,6917.83,95.437,540.348,539.042,0.0
52453.0,STARLINK-3872,PAYLOAD,2023-02-24 20:17:54,15.08844634,8.25e-05,53.2155,6.9208,100.1034,260.0052,0.00022785,3.341e-05,0.0,0 STARLINK-3872,1 52453U 22049C   23055.84576560  .00003341  00000-0  22785-3 0  9990,2 52453  53.2155   6.9208 0000825 100.1034 260.0052 15.08844634 44715,6917.866,95.437,540.302,539.161,0.0
52453.0,STARLINK-3872,PAYLOAD,2023-02-24 23:28:40,15.0884244,6.48e-05,53.2172,6.3263,109.0403,251.0659,8.3855e-05,1.047e-05,0.0,0 STARLINK-3872,1 52453U 22049C   23055.97824489  .00001047  00000-0  83855-4 0  9997,2 52453  53.2172   6.3263 0000648 109.0403 251.0659 15.08842440 44895,6917.873,95.437,540.186,539.29,0.0
52453.0,STARLINK-3872,PAYLOAD,2023-02-25 05:50:13,15.08832513,0.0001244,53.2157,5.1365,98.6424,261.471,-7.8737e-05,-1.54e-05,0.0,0 STARLINK-3872,1 52453U 22049C   23056.24321074 -.00001540  00000-0 -78737-4 0  9993,2 52453  53.2157   5.1365 0001244  98.6424 261.4710 15.08832513 44935,6917.903,95.438,540.629,538.908,0.0
52453.0,STARLINK-3872,PAYLOAD,2023-02-25 15:22:32,15.08830083,0.0001268,53.2155,3.3532,105.9379,254.1753,-5.4295e-06,-3.74e-06,0.0,0 STARLINK-3872,1 52453U 22049C   23056.64065329 -.00000374  00000-0 -54295-5 0  9993,2 52453  53.2155   3.3532 0001268 105.9379 254.1753 15.08830083 44831,6917.911,95.438,540.653,538.899,0.0
52453.0,STARLINK-3872,PAYLOAD,2023-02-26 05:41:00,15.08863835,0.0001452,53.215,0.6757,103.2794,256.836,0.0012841,0.00020221,0.0,0 STARLINK-3872,1 52453U 22049C   23057.23680869  .00020221  00000-0  12841-2 0  9990,2 52453  53.2150   0.6757 0001452 103.2794 256.8360 15.08863835 45084,6917.808,95.436,540.677,538.668,0.0
52453.0,STARLINK-3872,PAYLOAD,2023-02-26 19:59:28,15.08862946,0.0001689,53.215,358.0,98.5909,261.5274,0.00093543,0.0001464,0.0,0 STARLINK-3872,1 52453U 22049C   23057.83296826  .00014640  00000-0  93543-3 0  9999,2 52453  53.2150 358.0000 0001689  98.5909 261.5274 15.08862946 45170,6917.81,95.436,540.844,538.507,0.0
52453.0,STARLINK-3872,PAYLOAD,2023-02-27 05:31:46,15.08879056,0.0001611,53.2153,356.2162,87.0522,273.0654,0.002049,0.00032508,0.0,0 STARLINK-3872,1 52453U 22049C   23058.23040330  .00032508  00000-0  20490-2 0  9994,2 52453  53.2153 356.2162 0001611  87.0522 273.0654 15.08879056 45070,6917.761,95.435,540.74,538.512,0.0
52453.0,STARLINK-3872,PAYLOAD,2023-02-28 05:22:32,15.08898783,0.000141,53.2156,351.7547,98.8783,261.2369,0.0024599,0.00039142,0.0,0 STARLINK-3872,1 52453U 22049C   23059.22398812  .00039142  00000-0  24599-2 0  9990,2 52453  53.2156 351.7547 0001410  98.8783 261.2369 15.08898783 45380,6917.701,95.434,540.541,538.59,0.0
52453.0,STARLINK-3872,PAYLOAD,2023-02-28 22:51:48,15.08799431,0.0001226,53.2156,348.4836,136.0706,224.0384,0.001066,0.00016699,0.0,0 STARLINK-3872,1 52453U 22049C   23059.95265023  .00016699  00000-0  10660-2 0  9993,2 52453  53.2156 348.4836 0001226 136.0706 224.0384 15.08799431 45495,6918.004,95.44,540.718,539.021,0.0
52453.0,STARLINK-3872,PAYLOAD,2023-03-01 06:48:45,15.08811319,9.51e-05,53.2156,346.9964,128.8968,231.2109,0.0011971,0.000188,0.0,0 STARLINK-3872,1 52453U 22049C   23060.28385778  .00018800  00000-0  11971-2 0  9993,2 52453  53.2156 346.9964 0000951 128.8968 231.2109 15.08811319 45386,6917.968,95.439,540.491,539.175,0.0
52453.0,STARLINK-3872,PAYLOAD,2023-03-02 03:28:45,15.08871407,0.0001082,53.2167,343.1325,139.0157,221.0916,0.0018046,0.00028574,0.0,0 STARLINK-3872,1 52453U 22049C   23061.14497328  .00028574  00000-0  18046-2 0  9993,2 52453  53.2167 343.1325 0001082 139.0157 221.0916 15.08871407 45677,6917.784,95.436,540.398,538.901,0.0
52453.0,STARLINK-3872,PAYLOAD,2023-03-02 19:22:36,15.08864572,0.0001442,53.2161,340.1559,112.9211,247.1933,0.0012884,0.0002029,0.0,0 STARLINK-3872,1 52453U 22049C   23061.80737218  .00020290  00000-0  12884-2 0  9992,2 52453  53.2161 340.1559 0001442 112.9211 247.1933 15.08864572 45615,6917.805,95.436,540.668,538.673,0.0
52453.0,STARLINK-3872,PAYLOAD,2023-03-03 03:19:32,15.08862527,9.48e-05,53.2159,338.6683,125.6132,234.4948,0.00074317,0.00011567,0.0,0 STARLINK-3872,1 52453U 22049C   23062.13856777  .00011567  00000-0  74317-3 0  9998,2 52453  53.2159 338.6683 0000948 125.6132 234.4948 15.08862527 45821,6917.812,95.436,540.332,539.021,0.0
52453.0,STARLINK-3872,PAYLOAD,2023-03-03 22:24:09,15.08857531,9.57e-05,53.2164,335.1034,77.1424,282.9674,0.00097436,0.0001526,0.0,0 STARLINK-3872,1 52453U 22049C   23062.93344602  .00015260  00000-0  97436-3 0  9996,2 52453  53.2164 335.1034 0000957  77.1424 282.9674 15.08857531 45940,6917.827,95.436,540.354,539.03,0.0
52453.0,STARLINK-3872,PAYLOAD,2023-03-04 04:45:41,15.08884365,0.0001119,53.2158,333.9108,96.8415,263.2705,0.0013718,0.00021638,0.0,0 STARLINK-3872,1 52453U 22049C   23063.19839634  .00021638  00000-0  13718-2 0  9995,2 52453  53.2158 333.9108 0001119  96.8415 263.2705 15.08884365 45986,6917.745,95.435,540.384,538.836,0.0
52453.0,STARLINK-3872,PAYLOAD,2023-03-04 17:28:47,15.08826136,0.0001566,53.216,331.5342,103.1547,256.962,-7.0705e-05,-1.413e-05,0.0,0 STARLINK-3872,1 52453U 22049C   23063.72832909 -.00001413  00000-0 -70705-4 0  9994,2 52453  53.2160 331.5342 0001566 103.1547 256.9620 15.08826136 46064,6917.923,95.438,540.871,538.704,0.0
52453.0,STARLINK-3872,PAYLOAD,2023-03-05 01:25:44,15.08824256,0.0001907,53.2152,330.0495,74.7762,285.3441,0.0013863,0.00021834,0.0,0 STARLINK-3872,1 52453U 22049C   23064.05953849  .00021834  00000-0  13863-2 0  9995,2 52453  53.2152 330.0495 0001907  74.7762 285.3441 15.08824256 45954,6917.929,95.439,541.113,538.474,0.0
52453.0,STARLINK-3872,PAYLOAD,2023-03-05 22:05:45,15.08854717,0.0001363,53.2158,326.1857,50.1846,309.9266,0.001532,0.00024188,0.0,0 STARLINK-3872,1 52453U 22049C   23064.92066180  .00024188  00000-0  15320-2 0  9999,2 52453  53.2158 326.1857 0001363  50.1846 309.9266 15.08854717 46241,6917.835,95.437,540.643,538.758,0.0
52453.0,STARLINK-3872,PAYLOAD,2023-03-06 02:51:54,15.08880929,9.69e-05,53.2156,325.2894,71.103,289.0067,0.0023278,0.00036995,0.0,0 STARLINK-3872,1 52453U 22049C   23065.11937507  .00036995  00000-0  23278-2 0  9991,2 52453  53.2156 325.2894 0000969  71.1030 289.0067 15.08880929 46273,6917.755,95.435,540.291,538.95,0.0
52453.0,STARLINK-3872,PAYLOAD,2023-03-06 17:10:22,15.08852409,0.0001253,53.2164,322.616,58.2659,301.8455,0.0012622,0.00019864,0.0,0 STARLINK-3872,1 52453U 22049C   23065.71553714  .00019864  00000-0  12622-2 0  9998,2 52453  53.2164 322.6160 0001253  58.2659 301.8455 15.08852409 46365,6917.842,95.437,540.574,538.841,0.0
52453.0,STARLINK-3872,PAYLOAD,2023-03-07 02:42:39,15.08904675,0.0001235,53.2158,320.8311,70.3963,289.7162,0.0034612,0.00055328,0.0,0 STARLINK-3872,1 52453U 22049C   23066.11296134  .00055328  00000-0  34612-2 0  9991,2 52453  53.2158 320.8311 0001235  70.3963 289.7162 15.08904675 46428,6917.683,95.433,540.402,538.693,0.0
52453.0,STARLINK-3872,PAYLOAD,2023-03-07 17:01:08,15.08848755,0.0001069,53.2158,318.1537,53.052,307.057,0.00052247,8.039e-05,0.0,0 STARLINK-3872,1 52453U 22049C   23066.70912996  .00008039  00000-0  52247-3 0  9999,2 52453  53.2158 318.1537 0001069  53.0520 307.0570 15.08848755 46513,6917.854,95.437,540.458,538.979,0.0
52453.0,STARLINK-3872,PAYLOAD,2023-03-08 02:33:28,15.08826333,0.0001659,53.2149,316.3693,66.1883,293.9283,-1.6267e-05,-5.47e-06,0.0,0 STARLINK-3872,1 52453U 22049C   23067.10657700 -.00000547  00000-0 -16267-4 0  9994,2 52453  53.2149 316.3693 0001659  66.1883 293.9283 15.08826333 46576,6917.922,95.438,540.935,538.639,0.0
52453.0,STARLINK-3872,PAYLOAD,2023-03-08 16:51:57,15.08830273,0.000156,53.2132,313.6931,67.4683,292.6474,0.0012539,0.00019719,0.0,0 STARLINK-3872,1 52453U 22049C   23067.70274827  .00019719  00000-0  12539-2 0  9990,2 52453  53.2132 313.6931 0001560  67.4683 292.6474 15.08830273 46505,6917.91,95.438,540.854,538.696,0.0
